sat43288
1 43288U 63014FL  20046.26553725 -.00002214  00000-0 -42413+0 0  9990
2 43288  86.9216 355.5500 1311636 197.4948 157.6291  8.69059693167612
